NORAD_CAT_ID,OBJECT_NAME,OBJECT_TYPE,EPOCH,MEAN_MOTION,ECCENTRICITY,INCLINATION,RA_OF_ASC_NODE,ARG_OF_PERICENTER,MEAN_ANOMALY,BSTAR,MEAN_MOTION_DOT,MEAN_MOTION_DDOT,TLE_LINE0,TLE_LINE1,TLE_LINE2,SEMIMAJOR_AXIS,PERIOD,APOGEE,PERIGEE,DECAYED
49457.0,STARLINK-3132,PAYLOAD,2021-11-25 14:00:01,15.82095785,0.0003434,53.2175,73.4958,42.9908,88.4907,-0.0042486999999999,-0.00810587,0.0,0 STARLINK-3132,1 49457U 21104BB  21329.58334491 -.00810587  00000-0 -42487-2 0  9999,2 49457  53.2175  73.4958 0003434  42.9908  88.4907 15.82095785  2554,6702.651999999999,91.019,326.818,322.215,0.0
49457.0,STARLINK-3132,PAYLOAD,2021-11-25 20:00:01,15.81661185,0.0002221,53.2172,72.2426,28.0249,87.971,-0.0043863,-0.0081863,0.0,0 STARLINK-3132,1 49457U 21104BB  21329.83334491 -.00818630  00000-0 -43863-2 0  9993,2 49457  53.2172  72.2426 0002221  28.0249  87.9710 15.81661185  3205,6703.88,91.044,327.233,324.256,0.0
49457.0,STARLINK-3132,PAYLOAD,2021-11-26 12:00:00,15.80491354,0.0002322,53.2173,68.9046,17.1557,295.6126,-0.0046512,-0.00821741,0.0,0 STARLINK-3132,1 49457U 21104BB  21330.50001157 -.00821741  00000-0 -46512-2 0  9990,2 49457  53.2173  68.9046 0002322  17.1557 295.6126 15.80491354  3318,6707.187,91.111,330.61,327.495,0.0
49457.0,STARLINK-3132,PAYLOAD,2021-11-26 14:00:01,15.80345859,0.0002459,53.2172,68.4883,15.0988,52.1331,-0.0046909,-0.00823112,0.0,0 STARLINK-3132,1 49457U 21104BB  21330.58335648 -.00823112  00000-0 -46909-2 0  9997,2 49457  53.2172  68.4883 0002459  15.0988  52.1331 15.80345859  2712,6707.599,91.119,331.11300000000006,327.814,0.0
49457.0,STARLINK-3132,PAYLOAD,2021-11-26 22:00:00,15.79759679,0.0001761999999999,53.2173,66.8211,31.9786,132.3427,-0.0048185,-0.00822715,0.0,0 STARLINK-3132,1 49457U 21104BB  21330.91667824 -.00822715  00000-0 -48185-2 0  9994,2 49457  53.2173  66.8211 0001762  31.9786 132.3427 15.79759679  2768,6709.2580000000025,91.153,332.305,329.941,0.0
49457.0,STARLINK-3132,PAYLOAD,2021-11-27 12:00:02,15.78730092,0.0002071,53.2176,63.9089,16.9617,225.7527,-0.0050019,-0.00815528,0.0,0 STARLINK-3132,1 49457U 21104BB  21331.50002315 -.00815528  00000-0 -50019-2 0  9991,2 49457  53.2176  63.9089 0002071  16.9617 225.7527 15.78730092  3476,6712.175,91.213,335.43,332.65,0.0
49457.0,STARLINK-3132,PAYLOAD,2021-11-27 14:00:01,15.7858832,0.0002139,53.2176,63.4936,16.4177,340.0993,-0.0050851,-0.00823052,0.0,0 STARLINK-3132,1 49457U 21104BB  21331.58334491 -.00823052  00000-0 -50851-2 0  9997,2 49457  53.2176  63.4936 0002139  16.4177 340.0993 15.78588320  2879,6712.5769999999975,91.221,335.8769999999999,333.006,0.0
49457.0,STARLINK-3132,PAYLOAD,2021-11-27 22:00:00,15.78001334,0.0001484,53.2172,61.8305,35.1304,56.43,-0.0052081,-0.0082081,0.0,0 STARLINK-3132,1 49457U 21104BB  21331.91667824 -.00820810  00000-0 -52081-2 0  9999,2 49457  53.2172  61.8305 0001484  35.1304  56.4300 15.78001334  2920,6714.241,91.255,337.102,335.11,0.0
49457.0,STARLINK-3132,PAYLOAD,2021-11-28 12:00:00,15.7697446,0.0001837,53.2171,58.9261,32.9239,133.2663,-0.0054346,-0.00818218,0.0,0 STARLINK-3132,1 49457U 21104BB  21332.50001157 -.00818218  00000-0 -54346-2 0  9991,2 49457  53.2171  58.9261 0001837  32.9239 133.2663 15.76974460  3633,6717.155,91.314,340.254,337.787,0.0
49457.0,STARLINK-3132,PAYLOAD,2021-11-28 14:00:01,15.76830376,0.0001701,53.2173,58.5119,34.4127,245.1188,-0.005499,-0.0082216,0.0,0 STARLINK-3132,1 49457U 21104BB  21332.58334491 -.00822160  00000-0 -54990-2 0  9995,2 49457  53.2173  58.5119 0001701  34.4127 245.1188 15.76830376  3032,6717.565,91.322,340.57199999999995,338.287,0.0
49457.0,STARLINK-3132,PAYLOAD,2021-11-28 22:00:01,15.76244204,0.0001230999999999,53.2175,56.853,44.7679,327.7601,-0.0056368,-0.00820991,0.0,0 STARLINK-3132,1 49457U 21104BB  21332.91668981 -.00820991  00000-0 -56368-2 0  9997,2 49457  53.2175  56.8530 0001231  44.7679 327.7601 15.76244204  3087,6719.23,91.356,341.922,340.26800000000014,0.0
49457.0,STARLINK-3132,PAYLOAD,2021-11-29 12:00:00,15.75218941,0.0001977,53.2174,53.9564,26.8638,56.5314,-0.0058952,-0.00820824,0.0,0 STARLINK-3132,1 49457U 21104BB  21333.50001157 -.00820824  00000-0 -58952-2 0  9995,2 49457  53.2174  53.9564 0001977  26.8638  56.5314 15.75218941  3787,6722.145,91.416,345.339,342.681,0.0
49457.0,STARLINK-3132,PAYLOAD,2021-11-29 14:00:01,15.75071079,0.0001858,53.2177,53.5431,31.1157,165.0944,-0.0059156999999999,-0.00818524,0.0,0 STARLINK-3132,1 49457U 21104BB  21333.58334491 -.00818524  00000-0 -59157-2 0  9995,2 49457  53.2177  53.5431 0001858  31.1157 165.0944 15.75071079  3191,6722.566,91.424,345.68,343.182,0.0
49457.0,STARLINK-3132,PAYLOAD,2021-11-29 22:00:00,15.74487618,0.0001512,53.2174,51.8883,38.5559,248.4721,-0.0061034,-0.00822647,0.0,0 STARLINK-3132,1 49457U 21104BB  21333.91667824 -.00822647  00000-0 -61034-2 0  9999,2 49457  53.2174  51.8883 0001512  38.5559 248.4721 15.74487618  3259,6724.227,91.458,347.108,345.075,0.0
49457.0,STARLINK-3132,PAYLOAD,2021-11-30 10:00:00,15.73450949,0.0001859,53.2174,49.4115,32.3651,209.5961,-0.0025887,-0.00352929,0.0,0 STARLINK-3132,1 49457U 21104BB  21334.41667824 -.00352929  00000-0 -25887-2 0  9992,2 49457  53.2174  49.4115 0001859  32.3651 209.5961 15.73450949  3338,6727.18,91.519,350.295,347.7940000000001,0.0
49457.0,STARLINK-3132,PAYLOAD,2021-11-30 16:00:00,15.73099822,0.0001656,53.2176,48.1757,37.2915,181.5688,0.00106,0.00150187,0.0,0 STARLINK-3132,1 49457U 21104BB  21334.66667824  .00150187  00000-0  10600-2 0  9996,2 49457  53.2176  48.1757 0001656  37.2915 181.5688 15.73099822  3974,6728.181,91.539,351.16,348.932,0.0
49457.0,STARLINK-3132,PAYLOAD,2021-11-30 22:00:00,15.73208532,0.0001518,53.2175,46.9362,40.9313,154.5671,-5.4561e-05,-8.273e-05,0.0,0 STARLINK-3132,1 49457U 21104BB  21334.91667824 -.00008273  00000-0 -54561-4 0  9990,2 49457  53.2175  46.9362 0001518  40.9313 154.5671 15.73208532  3412,6727.871,91.533,350.75699999999995,348.715,0.0
49457.0,STARLINK-3132,PAYLOAD,2021-12-01 12:00:00,15.73256666,0.0001887,53.2194,44.0536,30.6101,230.7249,-0.0002704,-0.00038491,0.0,0 STARLINK-3132,1 49457U 21104BB  21335.50001157 -.00038491  00000-0 -27040-3 0  9993,2 49457  53.2194  44.0536 0001887  30.6101 230.7249 15.73256666  4101,6727.734,91.53,350.86800000000005,348.329,0.0
49457.0,STARLINK-3132,PAYLOAD,2021-12-01 14:00:01,15.73252641,0.0001909,53.2195,43.6416,28.8548,344.7273,-0.00029305,-0.00041641,0.0,0 STARLINK-3132,1 49457U 21104BB  21335.58334491 -.00041641  00000-0 -29305-3 0  9998,2 49457  53.2195  43.6416 0001909  28.8548 344.7273 15.73252641  3520,6727.745,91.53,350.894,348.326,0.0
49457.0,STARLINK-3132,PAYLOAD,2021-12-01 22:00:00,15.73216661,0.0001675999999999,53.2192,41.9905,26.5113,76.0635,0.00012074,0.0001636999999999,0.0,0 STARLINK-3132,1 49457U 21104BB  21335.91667824  .00016370  00000-0  12074-3 0  9998,2 49457  53.2192  41.9905 0001676  26.5113  76.0635 15.73216661  3579,6727.848000000001,91.532,350.84,348.585,0.0
49457.0,STARLINK-3132,PAYLOAD,2021-12-02 02:00:01,15.73200169,0.0001609,53.219,41.1651,28.7711,298.2857,0.00057162,0.00080375,0.0,0 STARLINK-3132,1 49457U 21104BB  21336.08334491  .00080375  00000-0  57162-3 0  9991,2 49457  53.2190  41.1651 0001609  28.7711 298.2857 15.73200169  4190,6727.895,91.533,350.842,348.677,0.0
49457.0,STARLINK-3132,PAYLOAD,2021-12-03 10:00:00,15.73155308,0.0002056,53.2195,34.5695,31.5308,291.2092,2.8814e-05,3.417e-05,0.0,0 STARLINK-3132,1 49457U 21104BB  21337.41667824  .00003417  00000-0  28814-4 0  9993,2 49457  53.2195  34.5695 0002056  31.5308 291.2092 15.73155308  4402,6728.023,91.536,351.271,348.504,0.0
49457.0,STARLINK-3132,PAYLOAD,2021-12-03 14:00:01,15.73129777,0.0002145,53.2196,33.7456,29.7556,157.4252,0.00049554,0.00069295,0.0,0 STARLINK-3132,1 49457U 21104BB  21337.58334491  .00069295  00000-0  49554-3 0  9991,2 49457  53.2196  33.7456 0002145  29.7556 157.4252 15.73129777  3706,6728.095,91.537,351.404,348.517,0.0
49457.0,STARLINK-3132,PAYLOAD,2021-12-03 22:00:00,15.73169104,0.0001954,53.2192,32.0946,33.1521,242.905,0.00016278,0.00022256,0.0,0 STARLINK-3132,1 49457U 21104BB  21337.91667824  .00022256  00000-0  16278-3 0  9990,2 49457  53.2192  32.0946 0001954  33.1521 242.9050 15.73169104  3711,6727.983,91.535,351.163,348.534,0.0
49457.0,STARLINK-3132,PAYLOAD,2021-12-04 04:00:00,15.73187127,0.0001892,53.2193,30.8572,36.4641,216.2639,0.00028261,0.00039207,0.0,0 STARLINK-3132,1 49457U 21104BB  21338.16667824  .00039207  00000-0  28261-3 0  9997,2 49457  53.2193  30.8572 0001892  36.4641 216.2639 15.73187127  4525,6727.932,91.534,351.07,348.524,0.0
49457.0,STARLINK-3132,PAYLOAD,2021-12-04 06:00:00,15.73210577,0.0001955,53.2193,30.4454,35.0619,329.8905,-9.4332e-06,-1.945e-05,0.0,0 STARLINK-3132,1 49457U 21104BB  21338.25001157 -.00001945  00000-0 -94332-5 0  9992,2 49457  53.2193  30.4454 0001955  35.0619 329.8905 15.73210577  3768,6727.865,91.533,351.045,348.415,0.0
49457.0,STARLINK-3132,PAYLOAD,2021-12-04 20:00:01,15.73273852,0.0002044,53.2194,27.5591,30.3095,40.296,-0.00060744,-0.00085289,0.0,0 STARLINK-3132,1 49457U 21104BB  21338.83334491 -.00085289  00000-0 -60744-3 0  9997,2 49457  53.2194  27.5591 0002044  30.3095  40.2960 15.73273852  4620,6727.685,91.529,350.925,348.1740000000001,0.0
49457.0,STARLINK-3132,PAYLOAD,2021-12-04 22:00:00,15.73251787,0.0001979,53.2195,27.1462,30.8775,151.9797,-0.00050612,-0.00071216,0.0,0 STARLINK-3132,1 49457U 21104BB  21338.91667824 -.00071216  00000-0 -50612-3 0  9993,2 49457  53.2195  27.1462 0001979  30.8775 151.9797 15.73251787  3709,6727.748000000001,91.53,350.944,348.281,0.0
49457.0,STARLINK-3132,PAYLOAD,2021-12-05 12:00:00,15.731913,0.0002237,53.2194,24.2613,28.2332,220.2871,0.00032708,0.00045518,0.0,0 STARLINK-3132,1 49457U 21104BB  21339.50001157  .00045518  00000-0  32708-3 0  9990,2 49457  53.2194  24.2613 0002237  28.2332 220.2871 15.73191300  4733,6727.92,91.534,351.29,348.28,0.0
